[
{
"CCSDS_OMM_VERS": "2.0",
"COMMENT": "GENERATED VIA SPACE-TRACK.ORG API",
"CREATION_DATE": "2025-03-20T19:29:49",
"ORIGINATOR": "18 SPCS",
"OBJECT_NAME": "BEIDOU 3M12",
"OBJECT_ID": "2018-067B",
"CENTER_NAME": "EARTH",
"REF_FRAME": "TEME",
"TIME_SYSTEM": "UTC",
"MEAN_ELEMENT_THEORY": "SGP4",
"EPOCH": "2025-03-19T18:36:55.961280",
"MEAN_MOTION": "1.86227354",
"ECCENTRICITY": "0.00044030",
"INCLINATION": "54.1959",
"RA_OF_ASC_NODE": "196.4146",
"ARG_OF_PERICENTER": "27.1664",
"MEAN_ANOMALY": "332.8489",
"EPHEMERIS_TYPE": "0",
"CLASSIFICATION_TYPE": "U",
"NORAD_CAT_ID": "43603",
"ELEMENT_SET_NO": "999",
"REV_AT_EPOCH": "4468",
"BSTAR": "0.00000000000000",
"MEAN_MOTION_DOT": "0.00000022",
"MEAN_MOTION_DDOT": "0.0000000000000",
"SEMIMAJOR_AXIS": "27906.553",
"PERIOD": "773.248",
"APOAPSIS": "21540.705",
"PERIAPSIS": "21516.131",
"OBJECT_TYPE": "PAYLOAD",
"RCS_SIZE": "LARGE",
"COUNTRY_CODE": "PRC",
"LAUNCH_DATE": "2018-08-24",
"SITE": "XSC",
"DECAY_DATE": null,
"FILE": "4675094",
"GP_ID": "283583675",
"TLE_LINE0": "0 BEIDOU 3M12",
"TLE_LINE1": "1 43603U 18067B   25078.77564770  .00000022  00000-0  00000-0 0  9997",
"TLE_LINE2": "2 43603  54.1959 196.4146 0004403  27.1664 332.8489  1.86227354 44686"
},
{
"CCSDS_OMM_VERS": "2.0",
"COMMENT": "GENERATED VIA SPACE-TRACK.ORG API",
"CREATION_DATE": "2025-03-20T03:31:02",
"ORIGINATOR": "18 SPCS",
"OBJECT_NAME": "BEIDOU 5",
"OBJECT_ID": "2010-036A",
"CENTER_NAME": "EARTH",
"REF_FRAME": "TEME",
"TIME_SYSTEM": "UTC",
"MEAN_ELEMENT_THEORY": "SGP4",
"EPOCH": "2025-03-19T17:22:54.913152",
"MEAN_MOTION": "1.00251312",
"ECCENTRICITY": "0.00456890",
"INCLINATION": "54.2674",
"RA_OF_ASC_NODE": "167.0736",
"ARG_OF_PERICENTER": "211.0160",
"MEAN_ANOMALY": "164.4095",
"EPHEMERIS_TYPE": "0",
"CLASSIFICATION_TYPE": "U",
"NORAD_CAT_ID": "36828",
"ELEMENT_SET_NO": "999",
"REV_AT_EPOCH": "5354",
"BSTAR": "0.00000000000000",
"MEAN_MOTION_DOT": "-0.00000107",
"MEAN_MOTION_DDOT": "0.0000000000000",
"SEMIMAJOR_AXIS": "42170.472",
"PERIOD": "1436.390",
"APOAPSIS": "35985.010",
"PERIAPSIS": "35599.665",
"OBJECT_TYPE": "PAYLOAD",
"RCS_SIZE": "LARGE",
"COUNTRY_CODE": "PRC",
"LAUNCH_DATE": "2010-07-31",
"SITE": "XSC",
"DECAY_DATE": null,
"FILE": "4674434",
"GP_ID": "283533111",
"TLE_LINE0": "0 BEIDOU 5",
"TLE_LINE1": "1 36828U 10036A   25078.72424668 -.00000107  00000-0  00000-0 0  9997",
"TLE_LINE2": "2 36828  54.2674 167.0736 0045689 211.0160 164.4095  1.00251312 53541"
},
{
"CCSDS_OMM_VERS": "2.0",
"COMMENT": "GENERATED VIA SPACE-TRACK.ORG API",
"CREATION_DATE": "2025-03-20T03:31:02",
"ORIGINATOR": "18 SPCS",
"OBJECT_NAME": "BEIDOU 2 G8",
"OBJECT_ID": "2019-027A",
"CENTER_NAME": "EARTH",
"REF_FRAME": "TEME",
"TIME_SYSTEM": "UTC",
"MEAN_ELEMENT_THEORY": "SGP4",
"EPOCH": "2025-03-19T17:09:40.592160",
"MEAN_MOTION": "1.00274393",
"ECCENTRICITY": "0.00057100",
"INCLINATION": "1.4637",
"RA_OF_ASC_NODE": "74.6186",
"ARG_OF_PERICENTER": "252.8474",
"MEAN_ANOMALY": "251.9690",
"EPHEMERIS_TYPE": "0",
"CLASSIFICATION_TYPE": "U",
"NORAD_CAT_ID": "44231",
"ELEMENT_SET_NO": "999",
"REV_AT_EPOCH": "2152",
"BSTAR": "0.00000000000000",
"MEAN_MOTION_DOT": "-0.00000239",
"MEAN_MOTION_DDOT": "0.0000000000000",
"SEMIMAJOR_AXIS": "42164.001",
"PERIOD": "1436.060",
"APOAPSIS": "35809.942",
"PERIAPSIS": "35761.790",
"OBJECT_TYPE": "PAYLOAD",
"RCS_SIZE": "LARGE",
"COUNTRY_CODE": "PRC",
"LAUNCH_DATE": "2019-05-17",
"SITE": "XSC",
"DECAY_DATE": null,
"FILE": "4674434",
"GP_ID": "283537838",
"TLE_LINE0": "0 BEIDOU 2 G8",
"TLE_LINE1": "1 44231U 19027A   25078.71505315 -.00000239  00000-0  00000-0 0  9997",
"TLE_LINE2": "2 44231   1.4637  74.6186 0005710 252.8474 251.9690  1.00274393 21525"
},
{
"CCSDS_OMM_VERS": "2.0",
"COMMENT": "GENERATED VIA SPACE-TRACK.ORG API",
"CREATION_DATE": "2025-03-20T19:29:49",
"ORIGINATOR": "18 SPCS",
"OBJECT_NAME": "BEIDOU 3M10",
"OBJECT_ID": "2018-062B",
"CENTER_NAME": "EARTH",
"REF_FRAME": "TEME",
"TIME_SYSTEM": "UTC",
"MEAN_ELEMENT_THEORY": "SGP4",
"EPOCH": "2025-03-19T16:57:51.953184",
"MEAN_MOTION": "1.86229521",
"ECCENTRICITY": "0.00055640",
"INCLINATION": "54.1063",
"RA_OF_ASC_NODE": "197.7458",
"ARG_OF_PERICENTER": "37.7706",
"MEAN_ANOMALY": "322.2582",
"EPHEMERIS_TYPE": "0",
"CLASSIFICATION_TYPE": "U",
"NORAD_CAT_ID": "43582",
"ELEMENT_SET_NO": "999",
"REV_AT_EPOCH": "4517",
"BSTAR": "0.00000000000000",
"MEAN_MOTION_DOT": "0.00000023",
"MEAN_MOTION_DDOT": "0.0000000000000",
"SEMIMAJOR_AXIS": "27906.336",
"PERIOD": "773.239",
"APOAPSIS": "21543.728",
"PERIAPSIS": "21512.674",
"OBJECT_TYPE": "PAYLOAD",
"RCS_SIZE": "LARGE",
"COUNTRY_CODE": "PRC",
"LAUNCH_DATE": "2018-07-29",
"SITE": "XSC",
"DECAY_DATE": null,
"FILE": "4675094",
"GP_ID": "283583672",
"TLE_LINE0": "0 BEIDOU 3M10",
"TLE_LINE1": "1 43582U 18062B   25078.70685131  .00000023  00000-0  00000-0 0  9997",
"TLE_LINE2": "2 43582  54.1063 197.7458 0005564  37.7706 322.2582  1.86229521 45171"
},
{
"CCSDS_OMM_VERS": "2.0",
"COMMENT": "GENERATED VIA SPACE-TRACK.ORG API",
"CREATION_DATE": "2025-03-20T03:31:02",
"ORIGINATOR": "18 SPCS",
"OBJECT_NAME": "BEIDOU 3 IGSO-1",
"OBJECT_ID": "2019-023A",
"CENTER_NAME": "EARTH",
"REF_FRAME": "TEME",
"TIME_SYSTEM": "UTC",
"MEAN_ELEMENT_THEORY": "SGP4",
"EPOCH": "2025-03-19T15:59:10.645152",
"MEAN_MOTION": "1.00272579",
"ECCENTRICITY": "0.00221630",
"INCLINATION": "58.0518",
"RA_OF_ASC_NODE": "42.3472",
"ARG_OF_PERICENTER": "227.6540",
"MEAN_ANOMALY": "266.7819",
"EPHEMERIS_TYPE": "0",
"CLASSIFICATION_TYPE": "U",
"NORAD_CAT_ID": "44204",
"ELEMENT_SET_NO": "999",
"REV_AT_EPOCH": "265",
"BSTAR": "0.00000000000000",
"MEAN_MOTION_DOT": "-0.00000198",
"MEAN_MOTION_DDOT": "0.0000000000000",
"SEMIMAJOR_AXIS": "42164.509",
"PERIOD": "1436.086",
"APOAPSIS": "35879.824",
"PERIAPSIS": "35692.925",
"OBJECT_TYPE": "PAYLOAD",
"RCS_SIZE": "LARGE",
"COUNTRY_CODE": "PRC",
"LAUNCH_DATE": "2019-04-20",
"SITE": "XSC",
"DECAY_DATE": null,
"FILE": "4674434",
"GP_ID": "283537836",
"TLE_LINE0": "0 BEIDOU 3 IGSO-1",
"TLE_LINE1": "1 44204U 19023A   25078.66609543 -.00000198  00000-0  00000-0 0  9999",
"TLE_LINE2": "2 44204  58.0518  42.3472 0022163 227.6540 266.7819  1.00272579  2650"
},
{
"CCSDS_OMM_VERS": "2.0",
"COMMENT": "GENERATED VIA SPACE-TRACK.ORG API",
"CREATION_DATE": "2025-03-19T22:56:18",
"ORIGINATOR": "18 SPCS",
"OBJECT_NAME": "BEIDOU 10",
"OBJECT_ID": "2011-073A",
"CENTER_NAME": "EARTH",
"REF_FRAME": "TEME",
"TIME_SYSTEM": "UTC",
"MEAN_ELEMENT_THEORY": "SGP4",
"EPOCH": "2025-03-19T15:21:05.335776",
"MEAN_MOTION": "1.00269520",
"ECCENTRICITY": "0.01011280",
"INCLINATION": "48.5078",
"RA_OF_ASC_NODE": "277.1448",
"ARG_OF_PERICENTER": "219.6099",
"MEAN_ANOMALY": "7.1077",
"EPHEMERIS_TYPE": "0",
"CLASSIFICATION_TYPE": "U",
"NORAD_CAT_ID": "37948",
"ELEMENT_SET_NO": "999",
"REV_AT_EPOCH": "4884",
"BSTAR": "0.00000000000000",
"MEAN_MOTION_DOT": "-0.00000121",
"MEAN_MOTION_DDOT": "0.0000000000000",
"SEMIMAJOR_AXIS": "42165.367",
"PERIOD": "1436.129",
"APOAPSIS": "36213.642",
"PERIAPSIS": "35360.822",
"OBJECT_TYPE": "PAYLOAD",
"RCS_SIZE": "LARGE",
"COUNTRY_CODE": "PRC",
"LAUNCH_DATE": "2011-12-01",
"SITE": "XSC",
"DECAY_DATE": null,
"FILE": "4674369",
"GP_ID": "283519256",
"TLE_LINE0": "0 BEIDOU 10",
"TLE_LINE1": "1 37948U 11073A   25078.63964509 -.00000121  00000-0  00000+0 0  9991",
"TLE_LINE2": "2 37948  48.5078 277.1448 0101128 219.6099   7.1077  1.00269520 48848"
},
{
"CCSDS_OMM_VERS": "2.0",
"COMMENT": "GENERATED VIA SPACE-TRACK.ORG API",
"CREATION_DATE": "2025-03-20T03:31:02",
"ORIGINATOR": "18 SPCS",
"OBJECT_NAME": "BEIDOU 3M14",
"OBJECT_ID": "2018-072B",
"CENTER_NAME": "EARTH",
"REF_FRAME": "TEME",
"TIME_SYSTEM": "UTC",
"MEAN_ELEMENT_THEORY": "SGP4",
"EPOCH": "2025-03-19T14:25:04.400832",
"MEAN_MOTION": "1.86231290",
"ECCENTRICITY": "0.00066160",
"INCLINATION": "56.2270",
"RA_OF_ASC_NODE": "77.7002",
"ARG_OF_PERICENTER": "323.3249",
"MEAN_ANOMALY": "36.6457",
"EPHEMERIS_TYPE": "0",
"CLASSIFICATION_TYPE": "U",
"NORAD_CAT_ID": "43623",
"ELEMENT_SET_NO": "999",
"REV_AT_EPOCH": "4418",
"BSTAR": "0.00000000000000",
"MEAN_MOTION_DOT": "0.00000004",
"MEAN_MOTION_DDOT": "0.0000000000000",
"SEMIMAJOR_AXIS": "27906.160",
"PERIOD": "773.232",
"APOAPSIS": "21546.487",
"PERIAPSIS": "21509.562",
"OBJECT_TYPE": "PAYLOAD",
"RCS_SIZE": "LARGE",
"COUNTRY_CODE": "PRC",
"LAUNCH_DATE": "2018-09-19",
"SITE": "XSC",
"DECAY_DATE": null,
"FILE": "4674434",
"GP_ID": "283537700",
"TLE_LINE0": "0 BEIDOU 3M14",
"TLE_LINE1": "1 43623U 18072B   25078.60074538  .00000004  00000-0  00000-0 0  9995",
"TLE_LINE2": "2 43623  56.2270  77.7002 0006616 323.3249  36.6457  1.86231290 44180"
},
{
"CCSDS_OMM_VERS": "2.0",
"COMMENT": "GENERATED VIA SPACE-TRACK.ORG API",
"CREATION_DATE": "2025-03-19T17:43:14",
"ORIGINATOR": "18 SPCS",
"OBJECT_NAME": "BEIDOU 3G1",
"OBJECT_ID": "2018-085A",
"CENTER_NAME": "EARTH",
"REF_FRAME": "TEME",
"TIME_SYSTEM": "UTC",
"MEAN_ELEMENT_THEORY": "SGP4",
"EPOCH": "2025-03-19T11:56:18.559392",
"MEAN_MOTION": "1.00267390",
"ECCENTRICITY": "0.00035350",
"INCLINATION": "2.8782",
"RA_OF_ASC_NODE": "100.4687",
"ARG_OF_PERICENTER": "352.1454",
"MEAN_ANOMALY": "43.6651",
"EPHEMERIS_TYPE": "0",
"CLASSIFICATION_TYPE": "U",
"NORAD_CAT_ID": "43683",
"ELEMENT_SET_NO": "999",
"REV_AT_EPOCH": "2350",
"BSTAR": "0.00000000000000",
"MEAN_MOTION_DOT": "-0.00000272",
"MEAN_MOTION_DDOT": "0.0000000000000",
"SEMIMAJOR_AXIS": "42165.964",
"PERIOD": "1436.160",
"APOAPSIS": "35802.735",
"PERIAPSIS": "35772.923",
"OBJECT_TYPE": "PAYLOAD",
"RCS_SIZE": "LARGE",
"COUNTRY_CODE": "PRC",
"LAUNCH_DATE": "2018-11-01",
"SITE": "XSC",
"DECAY_DATE": null,
"FILE": "4674121",
"GP_ID": "283501196",
"TLE_LINE0": "0 BEIDOU 3G1",
"TLE_LINE1": "1 43683U 18085A   25078.49743703 -.00000272  00000-0  00000-0 0  9997",
"TLE_LINE2": "2 43683   2.8782 100.4687 0003535 352.1454  43.6651  1.00267390 23502"
}
]
